GSAT0101 (GALILEO-PFM)  
1 37846U 11060A   26116.22899249 -.00000091  00000+0  00000+0 0  9996
2 37846  57.0096 343.1709 0003765  27.2500 332.8105  1.70475694 90230
GSAT0102 (GALILEO-FM2)  
1 37847U 11060B   26116.45263183 -.00000091  00000+0  00000+0 0  9994
2 37847  57.0107 343.1653 0004708   9.1421 173.7389  1.70475958 90241
GSAT0103 (GALILEO-FM3)  
1 38857U 12055A   26116.85598551  .00000044  00000+0  00000+0 0  9992
2 38857  55.7754 102.9524 0005911 295.7911  64.1419  1.70473386 84139
GSAT0201 (GALILEO 5)    
1 40128U 14050A   26116.13529482 -.00000064  00000+0  00000+0 0  9994
2 40128  48.9332 275.5670 1666333 177.3572 183.6448  1.85519973 77352
GSAT0202 (GALILEO 6)    
1 40129U 14050B   26116.92999610 -.00000073  00000+0  00000+0 0  9996
2 40129  48.9494 274.6194 1667550 178.1198 182.5912  1.85520667 79536
GSAT0203 (GALILEO 7)    
1 40544U 15017A   26117.18011044 -.00000091  00000+0  00000+0 0  9996
2 40544  56.8028 342.9865 0003398 299.9003  60.1078  1.70475940 68339
GSAT0204 (GALILEO 8)    
1 40545U 15017B   26115.08949468 -.00000090  00000+0  00000+0 0  9993
2 40545  56.8095 343.0621 0001552 296.0698  63.9535  1.70475480 31343
GSAT0205 (GALILEO 9)    
1 40889U 15045A   26115.63255192 -.00000038  00000+0  00000+0 0  9992
2 40889  54.9613 223.1764 0005159 266.9978  92.9342  1.67410754 66085
GSAT0206 (GALILEO 10)   
1 40890U 15045B   26115.66468946 -.00000038  00000+0  00000+0 0  9990
2 40890  54.9612 223.0540 0002188  38.1287 321.8788  1.70473961 66146
GSAT0209 (GALILEO 12)   
1 41174U 15079A   26115.24610591  .00000046  00000+0  00000+0 0  9990
2 41174  55.7962 102.7123 0005679 329.0159  30.9454  1.70474059 63871
GSAT0208 (GALILEO 11)   
1 41175U 15079B   26116.05295675  .00000046  00000+0  00000+0 0  9993
2 41175  55.7944 102.6873 0005050 330.1145  29.8515  1.70473954 64301
GSAT0211 (GALILEO 14)   
1 41549U 16030A   26114.41727357 -.00000030  00000+0  00000+0 0  9995
2 41549  55.1119 223.1731 0002524 359.1559   0.8397  1.70474087 61750
GSAT0210 (GALILEO 13)   
1 41550U 16030B   26115.26112393 -.00000036  00000+0  00000+0 0  9995
2 41550  55.1104 223.1480 0002810 225.6811 134.2889  1.70474037 61767
GSAT0207 (GALILEO 15)   
1 41859U 16069A   26116.71252252  .00000043  00000+0  00000+0 0  9996
2 41859  55.4671 102.5088 0005912 317.1917  42.7559  1.70473995 58524
GSAT0212 (GALILEO 16)   
1 41860U 16069B   26115.97942788  .00000045  00000+0  00000+0 0  9997
2 41860  55.4638 102.5243 0004656 340.7517  19.2254  1.70474171 58768
GSAT0213 (GALILEO 17)   
1 41861U 16069C   26116.93335348  .00000042  00000+0  00000+0 0  9990
2 41861  55.4672 102.5058 0005848 302.6930  57.2437  1.70474535 58647
GSAT0214 (GALILEO 18)   
1 41862U 16069D   26117.07947229  .00000042  00000+0  00000+0 0  9994
2 41862  55.4657 102.4944 0004907 307.7513  52.1969  1.70474264 58779
